{
  "type": "FeatureCollection",
  "features": [
    {
      "type": "Feature",
      "properties": {
        "norad_id": 33939,
        "name": "COSMOS 2251 DEB",
        "group": "cosmos-2251-debris",
        "lat": 65.19405943615027,
        "lon": 134.08017836549357,
        "alt_km": 561.4540753606534,
        "timestamp": "2025-12-05T07:38:19.238392+00:00",
        "meta_object_name": "COSMOS 2251 DEB",
        "meta_object_id": "1993-036EU",
        "meta_epoch": "2025-12-04T08:53:55.536288",
        "meta_mean_motion": 14.98843864,
        "meta_eccentricity": 0.0003071,
        "meta_inclination": 74.0073,
        "meta_ra_of_asc_node": 97.6502,
        "meta_arg_of_pericenter": 110.2484,
        "meta_mean_anomaly": 249.9033,
        "meta_ephemeris_type": 0,
        "meta_classification_type": "U",
        "meta_norad_cat_id": 33939,
        "meta_element_set_no": 999,
        "meta_rev_at_epoch": 88627,
        "meta_bstar": 0.0084747,
        "meta_mean_motion_dot": 0.00103812,
        "meta_mean_motion_ddot": 0,
        "tle_line1": "1 33939U 93036EU  25338.37078167  .00103812  00000+0  84747-2 0  9994",
        "tle_line2": "2 33939  74.0073  97.6502 0003071 110.2484 249.9033 14.98843864886276"
      },
      "geometry": {
        "type": "Point",
        "coordinates": [
          134.08017836549357,
          65.19405943615027
        ]
      }
    },
    {
      "type": "Feature",
      "properties": {
        "norad_id": 33940,
        "name": "COSMOS 2251 DEB",
        "group": "cosmos-2251-debris",
        "lat": -26.645370553217774,
        "lon": -14.11682041887334,
        "alt_km": 695.5370698473789,
        "timestamp": "2025-12-05T07:38:19.238403+00:00",
        "meta_object_name": "COSMOS 2251 DEB",
        "meta_object_id": "1993-036EV",
        "meta_epoch": "2025-12-04T06:48:29.393856",
        "meta_mean_motion": 14.58663589,
        "meta_eccentricity": 0.0011684,
        "meta_inclination": 74.0382,
        "meta_ra_of_asc_node": 159.5954,
        "meta_arg_of_pericenter": 238.6516,
        "meta_mean_anomaly": 298.3953,
        "meta_ephemeris_type": 0,
        "meta_classification_type": "U",
        "meta_norad_cat_id": 33940,
        "meta_element_set_no": 999,
        "meta_rev_at_epoch": 88470,
        "meta_bstar": 0.0023268,
        "meta_mean_motion_dot": 0.00010844,
        "meta_mean_motion_ddot": 0,
        "tle_line1": "1 33940U 93036EV  25338.28367354  .00010844  00000+0  23268-2 0  9998",
        "tle_line2": "2 33940  74.0382 159.5954 0011684 238.6516 298.3953 14.58663589884705"
      },
      "geometry": {
        "type": "Point",
        "coordinates": [
          -14.11682041887334,
          -26.645370553217774
        ]
      }
    },
    {
      "type": "Feature",
      "properties": {
        "norad_id": 33942,
        "name": "COSMOS 2251 DEB",
        "group": "cosmos-2251-debris",
        "lat": -55.44768802435697,
        "lon": 133.05909203589803,
        "alt_km": 781.8746954206599,
        "timestamp": "2025-12-05T07:38:19.238413+00:00",
        "meta_object_name": "COSMOS 2251 DEB",
        "meta_object_id": "1993-036EX",
        "meta_epoch": "2025-12-04T14:38:12.374880",
        "meta_mean_motion": 14.37969538,
        "meta_eccentricity": 0.0019942,
        "meta_inclination": 74.0361,
        "meta_ra_of_asc_node": 289.801,
        "meta_arg_of_pericenter": 14.8872,
        "meta_mean_anomaly": 158.3993,
        "meta_ephemeris_type": 0,
        "meta_classification_type": "U",
        "meta_norad_cat_id": 33942,
        "meta_element_set_no": 999,
        "meta_rev_at_epoch": 88017,
        "meta_bstar": 0.00046709,
        "meta_mean_motion_dot": 1.389e-05,
        "meta_mean_motion_ddot": 0,
        "tle_line1": "1 33942U 93036EX  25338.60986545  .00001389  00000+0  46709-3 0  9995",
        "tle_line2": "2 33942  74.0361 289.8010 0019942  14.8872 158.3993 14.37969538880174"
      },
      "geometry": {
        "type": "Point",
        "coordinates": [
          133.05909203589803,
          -55.44768802435697
        ]
      }
    },
    {
      "type": "Feature",
      "properties": {
        "norad_id": 33944,
        "name": "COSMOS 2251 DEB",
        "group": "cosmos-2251-debris",
        "lat": 45.49081708576448,
        "lon": 125.65602575739409,
        "alt_km": 732.2038819755735,
        "timestamp": "2025-12-05T07:38:19.238423+00:00",
        "meta_object_name": "COSMOS 2251 DEB",
        "meta_object_id": "1993-036EZ",
        "meta_epoch": "2025-12-04T10:00:43.683264",
        "meta_mean_motion": 14.37316315,
        "meta_eccentricity": 0.0111938,
        "meta_inclination": 74.04,
        "meta_ra_of_asc_node": 324.2382,
        "meta_arg_of_pericenter": 66.0363,
        "meta_mean_anomaly": 84.0711,
        "meta_ephemeris_type": 0,
        "meta_classification_type": "U",
        "meta_norad_cat_id": 33944,
        "meta_element_set_no": 999,
        "meta_rev_at_epoch": 87908,
        "meta_bstar": 0.0005415,
        "meta_mean_motion_dot": 1.71e-05,
        "meta_mean_motion_ddot": 0,
        "tle_line1": "1 33944U 93036EZ  25338.41717226  .00001710  00000+0  54150-3 0  9991",
        "tle_line2": "2 33944  74.0400 324.2382 0111938  66.0363  84.0711 14.37316315879088"
      },
      "geometry": {
        "type": "Point",
        "coordinates": [
          125.65602575739409,
          45.49081708576448
        ]
      }
    },
    {
      "type": "Feature",
      "properties": {
        "norad_id": 33945,
        "name": "COSMOS 2251 DEB",
        "group": "cosmos-2251-debris",
        "lat": -3.508473247531552,
        "lon": -41.138700183076466,
        "alt_km": 769.9644247989627,
        "timestamp": "2025-12-05T07:38:19.238433+00:00",
        "meta_object_name": "COSMOS 2251 DEB",
        "meta_object_id": "1993-036FA",
        "meta_epoch": "2025-12-04T09:53:54.700224",
        "meta_mean_motion": 14.34590373,
        "meta_eccentricity": 0.0021599,
        "meta_inclination": 74.0293,
        "meta_ra_of_asc_node": 321.5265,
        "meta_arg_of_pericenter": 50.4453,
        "meta_mean_anomaly": 309.8603,
        "meta_ephemeris_type": 0,
        "meta_classification_type": "U",
        "meta_norad_cat_id": 33945,
        "meta_element_set_no": 999,
        "meta_rev_at_epoch": 87896,
        "meta_bstar": 0.00026085,
        "meta_mean_motion_dot": 7.13e-06,
        "meta_mean_motion_ddot": 0,
        "tle_line1": "1 33945U 93036FA  25338.41243866  .00000713  00000+0  26085-3 0  9994",
        "tle_line2": "2 33945  74.0293 321.5265 0021599  50.4453 309.8603 14.34590373878968"
      },
      "geometry": {
        "type": "Point",
        "coordinates": [
          -41.138700183076466,
          -3.508473247531552
        ]
      }
    },
    {
      "type": "Feature",
      "properties": {
        "norad_id": 33948,
        "name": "COSMOS 2251 DEB",
        "group": "cosmos-2251-debris",
        "lat": 1.4423714919600783,
        "lon": 138.33940894598447,
        "alt_km": 787.9631049230757,
        "timestamp": "2025-12-05T07:38:19.238444+00:00",
        "meta_object_name": "COSMOS 2251 DEB",
        "meta_object_id": "1993-036FD",
        "meta_epoch": "2025-12-04T00:42:29.692512",
        "meta_mean_motion": 14.35613003,
        "meta_eccentricity": 0.00223705,
        "meta_inclination": 74.0352,
        "meta_ra_of_asc_node": 321.116,
        "meta_arg_of_pericenter": 39.4809,
        "meta_mean_anomaly": 320.7968,
        "meta_ephemeris_type": 0,
        "meta_classification_type": "U",
        "meta_norad_cat_id": 33948,
        "meta_element_set_no": 999,
        "meta_rev_at_epoch": 87898,
        "meta_bstar": 0.00035496193,
        "meta_mean_motion_dot": 1e-05,
        "meta_mean_motion_ddot": 0,
        "tle_line1": "1 33948U 93036FD  25338.02951033  .00001000  00000+0  35496-3 0  9992",
        "tle_line2": "2 33948  74.0352 321.1160 0022370  39.4809 320.7968 14.35613003878982"
      },
      "geometry": {
        "type": "Point",
        "coordinates": [
          138.33940894598447,
          1.4423714919600783
        ]
      }
    },
    {
      "type": "Feature",
      "properties": {
        "norad_id": 33971,
        "name": "COSMOS 2251 DEB",
        "group": "cosmos-2251-debris",
        "lat": 40.91780647252635,
        "lon": 73.07215502520336,
        "alt_km": 763.7740881381515,
        "timestamp": "2025-12-05T07:38:19.238454+00:00",
        "meta_object_name": "COSMOS 2251 DEB",
        "meta_object_id": "1993-036FE",
        "meta_epoch": "2025-12-04T13:27:27.897984",
        "meta_mean_motion": 14.39701116,
        "meta_eccentricity": 0.001815,
        "meta_inclination": 74.0249,
        "meta_ra_of_asc_node": 268.8483,
        "meta_arg_of_pericenter": 10.8879,
        "meta_mean_anomaly": 161.2357,
        "meta_ephemeris_type": 0,
        "meta_classification_type": "U",
        "meta_norad_cat_id": 33971,
        "meta_element_set_no": 999,
        "meta_rev_at_epoch": 88021,
        "meta_bstar": 0.0005898,
        "meta_mean_motion_dot": 1.824e-05,
        "meta_mean_motion_ddot": 0,
        "tle_line1": "1 33971U 93036FE  25338.56073956  .00001824  00000+0  58980-3 0  9993",
        "tle_line2": "2 33971  74.0249 268.8483 0018150  10.8879 161.2357 14.39701116880215"
      },
      "geometry": {
        "type": "Point",
        "coordinates": [
          73.07215502520336,
          40.91780647252635
        ]
      }
    }
  ]
}